OBJECT_NAME,OBJECT_ID,EPOCH,MEAN_MOTION,ECCENTRICITY,INCLINATION,RA_OF_ASC_NODE,ARG_OF_PERICENTER,MEAN_ANOMALY,EPHEMERIS_TYPE,CLASSIFICATION_TYPE,NORAD_CAT_ID,ELEMENT_SET_NO,REV_AT_EPOCH,BSTAR,MEAN_MOTION_DOT,MEAN_MOTION_DDOT
LEMUR-2-ROUNDTRIPPER,2025-009DG,2026-07-17T11:56:40.543008,15.04252230,.0004501,97.7248,281.1409,59.8268,300.3403,0,U,62711,999,8218,.30046E-3,.4118E-4,0
LEMUR-2-MYNAMEISJEFF,2025-009DH,2026-07-16T19:56:37.511808,15.04238210,.00042188,97.7299,280.8736,93.9545,266.2163,0,U,62712,999,8208,.32713731E-3,.4487E-4,0
LEMUR-2-LEIA-PHILIP,2025-052AN,2026-07-17T09:48:28.861632,14.97392166,.0005065,97.6799,89.8470,114.6694,245.5056,0,U,63246,999,7319,.41011E-5,-.1E-6,0
LEMUR-2-LIA-MARTIN,2025-052AQ,2026-07-17T03:14:31.836480,14.98037500,.00051892,97.6861,90.1001,85.6997,274.4819,0,U,63248,999,7316,.13774583E-3,.157E-4,0
LEMUR-2-DELOITTE-1,2025-052BB,2026-07-17T17:12:39.613824,14.97794164,.0002536,97.6884,91.0030,61.5005,298.6473,0,U,63259,999,7326,.20525E-3,.2353E-4,0
LEMUR-2-EMERSONROSE,2025-052BD,2026-07-17T04:40:35.468544,14.99301194,.00026189,97.6883,91.1066,57.1007,303.0468,0,U,63261,999,7323,.20040749E-3,.2388E-4,0
LEMUR-2-MARACHE-FRAN,2025-052BE,2026-07-17T03:35:17.540448,15.00322436,.00054171,97.6826,91.4309,244.8247,115.2415,0,U,63262,999,7325,.13620794E-3,.1649E-4,0
LEMUR-2-THEFALCONER,2025-052BG,2026-07-17T03:31:06.720384,14.97567389,.00004086,97.6823,90.0298,256.4392,103.6785,0,U,63264,999,7317,.91548459E-4,.1011E-4,0
LEMUR-2-UNTITLED-SC,2025-061A,2026-07-17T04:03:34.172064,15.13653035,.00193981,97.5658,173.3189,156.4933,203.7189,0,U,63351,999,7212,.9841043E-4,.1709E-4,0
LEMUR-2-ESPERANZA,2025-061B,2026-07-17T09:48:36.216864,15.13760415,.0019028,97.5665,173.6576,154.9312,205.2847,0,U,63352,999,7216,.99799E-4,.174E-4,0
LEMUR-2-THERMORAPTOR,2025-061D,2026-07-17T12:57:09.836352,15.14270236,.0019903,97.5717,174.4412,146.3860,213.8639,0,U,63354,999,7220,.10006E-3,.1771E-4,0
LEMUR-2-NEUROSPICY,2025-061E,2026-07-17T05:52:24.367008,15.14387869,.0017662,97.5644,173.7506,150.2079,210.0162,0,U,63355,999,7216,.10218E-3,.1814E-4,0
LEMUR-2-TILLINFINITY,2025-061F,2026-07-17T09:36:43.859232,15.14973749,.0019252,97.5628,174.2173,138.7215,221.5476,0,U,63356,999,7221,.10878E-3,.197E-4,0
LEMUR-2-KREMPEL-BRO1,2025-061G,2026-07-17T07:28:57.864576,15.14779383,.0019838,97.5631,174.0365,140.3530,219.9156,0,U,63357,999,7219,.10208E-3,.1835E-4,0
LEMUR-2-BALTO,2025-052BH,2026-07-16T22:24:34.244352,15.00373082,.00050442,97.6925,91.2085,320.2373,39.8480,0,U,63395,999,7322,.1988074E-3,.2437E-4,0
LEMUR-2-HUBBLE-4,2025-135AP,2026-07-17T13:16:03.476064,14.93689426,.0002851,97.7722,312.1079,156.1717,203.9635,0,U,64565,999,5840,.54742E-4,.522E-5,0
LEMUR-2-HUBBLE-5,2025-135BT,2026-07-17T07:01:51.475296,14.94216448,.0004455,97.7741,312.5223,226.7198,133.3651,0,U,64840,999,5840,.43281E-4,.407E-5,0
LEMUR-2-KARENDARRELL,2025-135BU,2026-07-17T14:19:52.737024,15.00518815,.0012683,97.7721,314.7670,97.4001,262.8665,0,U,64841,999,5857,.31062E-3,.3861E-4,0
LEMUR-2-LUCILLE-ROSE,2025-135BV,2026-07-17T07:17:34.321344,15.00502928,.0015138,97.7708,314.5090,182.7111,177.4033,0,U,65403,999,5315,.26282E-3,.3258E-4,0
LEMUR-2-AFFIE-WAUWIE,2025-248C,2026-07-17T07:55:40.156032,15.28312820,.0008948,45.3906,311.5299,263.2179,96.7692,0,U,66295,999,3920,.46965E-3,.12925E-3,0
OTTER SDM,2025-276N,2026-07-17T11:12:44.326944,15.20071543,.0004416,97.4199,271.4454,243.2607,116.8176,0,U,66678,999,3501,.14739E-3,.3113E-4,0
LEMUR-2-STAS-GORBUK,2025-276W,2026-07-17T02:15:33.091200,15.19669421,.0003693,97.4236,271.1299,238.6221,121.4653,0,U,66686,999,3495,.13597E-3,.2833E-4,0
LEMUR-2-TEODOR,2025-276DG,2026-07-17T15:17:16.895040,15.21351636,.0002193,97.4140,271.9387,86.0179,274.1307,0,U,66768,999,3507,.12795E-3,.2797E-4,0
LEMUR-2-LAILA,2025-276DQ,2026-07-17T16:07:58.359072,15.21578039,.0002894,97.4162,272.1136,90.9081,269.2486,0,U,66776,999,3508,.12905E-3,.2841E-4,0
LEMUR-2-CELIJO-SB-PK,2025-276DW,2026-07-17T10:51:38.254176,15.00298646,.0006869,97.5188,268.2309,58.8596,301.3301,0,U,66781,999,2716,.252E-3,.3102E-4,0
LEMUR-2-FINNIAN,2025-276DX,2026-07-17T10:08:06.796032,15.00631674,.0007425,97.5344,268.4746,350.8943,9.2145,0,U,66782,999,2453,.11408E-3,.1385E-4,0
